57332,STARLINK-5831,2023,95.84,-1.0,+,43.0,Active,0,LEO,USA,USA,Unknown,Unknown,Unknown,1 57332U 23099E   25267.16234440 -.00000120  00000+0  62070-5 0  9992,2 57332  43.0024  74.0813 0000734 265.1782  94.8977 15.02528605121061,15.02528605,7.34e-05,LEO
57333,STARLINK-5585,2023,95.84,-1.0,+,43.0,Active,0,LEO,USA,USA,Unknown,Unknown,Unknown,1 57333U 23099F   25267.16122781  .00000903  00000+0  81890-4 0  9995,2 57333  43.0041  74.0768 0001206 278.3623  81.7083 15.02529902121069,15.02529902,0.0001206,LEO
57334,STARLINK-5589,2023,95.84,-1.0,+,43.0,Active,0,LEO,USA,USA,Unknown,Unknown,Unknown,1 57334U 23099G   25267.15567356  .00000662  00000+0  64104-4 0  9997,2 57334  42.9999  74.0341 0001386 281.1456  78.9230 15.02536469121060,15.02536469,0.0001386,LEO
57335,STARLINK-6316,2023,95.84,-1.0,+,43.0,Active,0,LEO,USA,USA,Unknown,Unknown,Unknown,1 57335U 23099H   25266.94515167 -.00000395  00000+0 -14167-4 0  9996,2 57335  43.0027  75.0385 0001282 263.1363  96.9333 15.02531015121039,15.02531015,0.0001282,LEO
57336,STARLINK-6320,2023,95.84,-1.0,+,43.0,Active,0,LEO,USA,USA,Unknown,Unknown,Unknown,1 57336U 23099J   25267.18108929  .00002578  00000+0  20582-3 0  9998,2 57336  43.0026  73.3506 0001247 269.0769  90.9930 15.02536675121079,15.02536675,0.0001247,LEO
57337,STARLINK-6322,2023,95.84,-1.0,+,43.0,Active,0,LEO,USA,USA,Unknown,Unknown,Unknown,1 57337U 23099K   25267.15235386 -.00000182  00000+0  15816-5 0  9990,2 57337  43.0030  74.0079 0001284 266.4437  93.6258 15.02532851121066,15.02532851,0.0001284,LEO
57338,STARLINK-6374,2023,95.84,-1.0,+,43.0,Active,0,LEO,USA,USA,Unknown,Unknown,Unknown,1 57338U 23099L   25267.14790953  .00001846  00000+0  15171-3 0  9995,2 57338  43.0029  73.9743 0001214 272.0777  87.9926 15.02529652121067,15.02529652,0.0001214,LEO
57339,STARLINK-6332,2023,95.84,-1.0,+,43.0,Active,0,LEO,USA,USA,Unknown,Unknown,Unknown,1 57339U 23099M   25267.15456670  .00000765  00000+0  71710-4 0  9993,2 57339  43.0051  74.0258 0001343 274.4055  85.6634 15.02536571121063,15.02536571,0.0001343,LEO
57340,STARLINK-6321,2023,95.84,-1.0,+,43.0,Active,0,LEO,USA,USA,Unknown,Unknown,Unknown,1 57340U 23099N   25266.73683200  .00000269  00000+0  34987-4 0  9993,2 57340  43.0012  76.0503 0001163 270.3313  89.7396 15.02537764121008,15.02537764,0.0001163,LEO
57341,STARLINK-6377,2023,95.84,-1.0,+,43.0,Active,0,LEO,USA,USA,Unknown,Unknown,Unknown,1 57341U 23099P   25266.21055905  .00000469  00000+0  49761-4 0  9990,2 57341  43.0025  78.9816 0001127 272.0209  88.0504 15.02537575120927,15.02537575,0.0001127,LEO
57342,STARLINK-6375,2023,95.84,-1.0,+,43.0,Active,0,LEO,USA,USA,Unknown,Unknown,Unknown,1 57342U 23099Q   25266.78667885  .00007607  00000+0  57774-3 0  9992,2 57342  42.9989  75.5632 0001828 260.0371 100.0265 15.02522987121010,15.02522987,0.0001828,LEO
57343,STARLINK-6379,2023,95.84,-1.0,+,43.0,Active,0,LEO,USA,USA,Unknown,Unknown,Unknown,1 57343U 23099R   25266.73905422  .00000080  00000+0  21014-4 0  9997,2 57343  43.0040  76.0653 0001080 266.9564  93.1155 15.02536173121000,15.02536173,0.000108,LEO
57344,STARLINK-6380,2023,95.84,-1.0,+,43.0,Active,0,LEO,USA,USA,Unknown,Unknown,Unknown,1 57344U 23099S   25266.46426319  .00000572  00000+0  57424-4 0  9991,2 57344  43.0045  77.4434 0001196 272.2798  87.7907 15.02537356120967,15.02537356,0.0001196,LEO
57345,STARLINK-6373,2023,95.84,-1.0,+,43.01,Active,0,LEO,USA,USA,Unknown,Unknown,Unknown,1 57345U 23099T   25267.19885193 -.00000226  00000+0 -16745-5 0  9992,2 57345  43.0065  73.4974 0001106 270.2683  89.8033 15.02535480121079,15.0253548,0.0001106,LEO
57346,STARLINK-6359,2023,95.84,-1.0,+,43.0,Active,0,LEO,USA,USA,Unknown,Unknown,Unknown,1 57346U 23099U   25267.17887079 -.00000185  00000+0  13638-5 0  9997,2 57346  43.0032  73.3433 0001235 269.7572  90.3129 15.02537715121072,15.02537715,0.0001235,LEO
57347,STARLINK-6378,2023,95.84,-1.0,+,43.0,Active,0,LEO,USA,USA,Unknown,Unknown,Unknown,1 57347U 23099V   25267.19108106  .00000137  00000+0  25209-4 0  9999,2 57347  43.0030  73.4380 0001334 268.0523  92.0167 15.02536457121074,15.02536457,0.0001334,LEO
