[{"OBJECT_NAME":"STARLINK-5831","OBJECT_ID":"2023-099E","EPOCH":"2025-09-24T03:53:46.556160","MEAN_MOTION":15.02528605,"ECCENTRICITY":7.343e-5,"INCLINATION":43.0024,"RA_OF_ASC_NODE":74.0813,"ARG_OF_PERICENTER":265.1782,"MEAN_ANOMALY":94.8977,"EPHEMERIS_TYPE":0,"CLASSIFICATION_TYPE":"U","NORAD_CAT_ID":57332,"ELEMENT_SET_NO":999,"REV_AT_EPOCH":12106,"BSTAR":6.206997e-6,"MEAN_MOTION_DOT":-1.2e-6,"MEAN_MOTION_DDOT":0},{"OBJECT_NAME":"STARLINK-5585","OBJECT_ID":"2023-099F","EPOCH":"2025-09-24T03:52:10.082784","MEAN_MOTION":15.02529902,"ECCENTRICITY":0.00012068,"INCLINATION":43.0041,"RA_OF_ASC_NODE":74.0768,"ARG_OF_PERICENTER":278.3623,"MEAN_ANOMALY":81.7083,"EPHEMERIS_TYPE":0,"CLASSIFICATION_TYPE":"U","NORAD_CAT_ID":57333,"ELEMENT_SET_NO":999,"REV_AT_EPOCH":12106,"BSTAR":8.188995e-5,"MEAN_MOTION_DOT":9.03e-6,"MEAN_MOTION_DDOT":0},{"OBJECT_NAME":"STARLINK-5589","OBJECT_ID":"2023-099G","EPOCH":"2025-09-24T03:44:10.195584","MEAN_MOTION":15.02536469,"ECCENTRICITY":0.00013862,"INCLINATION":42.9999,"RA_OF_ASC_NODE":74.0341,"ARG_OF_PERICENTER":281.1456,"MEAN_ANOMALY":78.923,"EPHEMERIS_TYPE":0,"CLASSIFICATION_TYPE":"U","NORAD_CAT_ID":57334,"ELEMENT_SET_NO":999,"REV_AT_EPOCH":12106,"BSTAR":6.4104321e-5,"MEAN_MOTION_DOT":6.62e-6,"MEAN_MOTION_DDOT":0},{"OBJECT_NAME":"STARLINK-6316","OBJECT_ID":"2023-099H","EPOCH":"2025-09-23T22:41:01.104288","MEAN_MOTION":15.02531015,"ECCENTRICITY":0.00012829,"INCLINATION":43.0027,"RA_OF_ASC_NODE":75.0385,"ARG_OF_PERICENTER":263.1363,"MEAN_ANOMALY":96.9333,"EPHEMERIS_TYPE":0,"CLASSIFICATION_TYPE":"U","NORAD_CAT_ID":57335,"ELEMENT_SET_NO":999,"REV_AT_EPOCH":12103,"BSTAR":-1.416651e-5,"MEAN_MOTION_DOT":-3.95e-6,"MEAN_MOTION_DDOT":0},{"OBJECT_NAME":"STARLINK-6320","OBJECT_ID":"2023-099J","EPOCH":"2025-09-24T04:20:46.114656","MEAN_MOTION":15.02536675,"ECCENTRICITY":0.00012479,"INCLINATION":43.0026,"RA_OF_ASC_NODE":73.3506,"ARG_OF_PERICENTER":269.0769,"MEAN_ANOMALY":90.993,"EPHEMERIS_TYPE":0,"CLASSIFICATION_TYPE":"U","NORAD_CAT_ID":57336,"ELEMENT_SET_NO":999,"REV_AT_EPOCH":12107,"BSTAR":0.00020582028,"MEAN_MOTION_DOT":2.578e-5,"MEAN_MOTION_DDOT":0},{"OBJECT_NAME":"STARLINK-6322","OBJECT_ID":"2023-099K","EPOCH":"2025-09-24T03:39:23.373504","MEAN_MOTION":15.02532851,"ECCENTRICITY":0.00012842,"INCLINATION":43.003,"RA_OF_ASC_NODE":74.0079,"ARG_OF_PERICENTER":266.4437,"MEAN_ANOMALY":93.6258,"EPHEMERIS_TYPE":0,"CLASSIFICATION_TYPE":"U","NORAD_CAT_ID":57337,"ELEMENT_SET_NO":999,"REV_AT_EPOCH":12106,"BSTAR":1.581628e-6,"MEAN_MOTION_DOT":-1.82e-6,"MEAN_MOTION_DDOT":0},{"OBJECT_NAME":"STARLINK-6374","OBJECT_ID":"2023-099L","EPOCH":"2025-09-24T03:32:59.383392","MEAN_MOTION":15.02529652,"ECCENTRICITY":0.00012148,"INCLINATION":43.0029,"RA_OF_ASC_NODE":73.9743,"ARG_OF_PERICENTER":272.0777,"MEAN_ANOMALY":87.9926,"EPHEMERIS_TYPE":0,"CLASSIFICATION_TYPE":"U","NORAD_CAT_ID":57338,"ELEMENT_SET_NO":999,"REV_AT_EPOCH":12106,"BSTAR":0.00015171285,"MEAN_MOTION_DOT":1.846e-5,"MEAN_MOTION_DDOT":0},{"OBJECT_NAME":"STARLINK-6332","OBJECT_ID":"2023-099M","EPOCH":"2025-09-24T03:42:34.562880","MEAN_MOTION":15.02536571,"ECCENTRICITY":0.00013436,"INCLINATION":43.0051,"RA_OF_ASC_NODE":74.0258,"ARG_OF_PERICENTER":274.4055,"MEAN_ANOMALY":85.6634,"EPHEMERIS_TYPE":0,"CLASSIFICATION_TYPE":"U","NORAD_CAT_ID":57339,"ELEMENT_SET_NO":999,"REV_AT_EPOCH":12106,"BSTAR":7.1710147e-5,"MEAN_MOTION_DOT":7.65e-6,"MEAN_MOTION_DDOT":0},{"OBJECT_NAME":"STARLINK-6321","OBJECT_ID":"2023-099N","EPOCH":"2025-09-23T17:41:02.284800","MEAN_MOTION":15.02537764,"ECCENTRICITY":0.00011632,"INCLINATION":43.0012,"RA_OF_ASC_NODE":76.0503,"ARG_OF_PERICENTER":270.3313,"MEAN_ANOMALY":89.7396,"EPHEMERIS_TYPE":0,"CLASSIFICATION_TYPE":"U","NORAD_CAT_ID":57340,"ELEMENT_SET_NO":999,"REV_AT_EPOCH":12100,"BSTAR":3.4986668e-5,"MEAN_MOTION_DOT":2.69e-6,"MEAN_MOTION_DDOT":0},{"OBJECT_NAME":"STARLINK-6377","OBJECT_ID":"2023-099P","EPOCH":"2025-09-23T05:03:12.301920","MEAN_MOTION":15.02537575,"ECCENTRICITY":0.00011279,"INCLINATION":43.0025,"RA_OF_ASC_NODE":78.9816,"ARG_OF_PERICENTER":272.0209,"MEAN_ANOMALY":88.0504,"EPHEMERIS_TYPE":0,"CLASSIFICATION_TYPE":"U","NORAD_CAT_ID":57341,"ELEMENT_SET_NO":999,"REV_AT_EPOCH":12092,"BSTAR":4.9761282e-5,"MEAN_MOTION_DOT":4.69e-6,"MEAN_MOTION_DDOT":0},{"OBJECT_NAME":"STARLINK-6375","OBJECT_ID":"2023-099Q","EPOCH":"2025-09-23T18:52:49.052640","MEAN_MOTION":15.02522987,"ECCENTRICITY":0.00018285,"INCLINATION":42.9989,"RA_OF_ASC_NODE":75.5632,"ARG_OF_PERICENTER":260.0371,"MEAN_ANOMALY":100.0265,"EPHEMERIS_TYPE":0,"CLASSIFICATION_TYPE":"U","NORAD_CAT_ID":57342,"ELEMENT_SET_NO":999,"REV_AT_EPOCH":12101,"BSTAR":0.00057774261,"MEAN_MOTION_DOT":7.607e-5,"MEAN_MOTION_DDOT":0},{"OBJECT_NAME":"STARLINK-6379","OBJECT_ID":"2023-099R","EPOCH":"2025-09-23T17:44:14.284608","MEAN_MOTION":15.02536173,"ECCENTRICITY":0.00010808,"INCLINATION":43.004,"RA_OF_ASC_NODE":76.0653,"ARG_OF_PERICENTER":266.9564,"MEAN_ANOMALY":93.1155,"EPHEMERIS_TYPE":0,"CLASSIFICATION_TYPE":"U","NORAD_CAT_ID":57343,"ELEMENT_SET_NO":999,"REV_AT_EPOCH":12100,"BSTAR":2.1014026e-5,"MEAN_MOTION_DOT":8.0e-7,"MEAN_MOTION_DDOT":0},{"OBJECT_NAME":"STARLINK-6380","OBJECT_ID":"2023-099S","EPOCH":"2025-09-23T11:08:32.339616","MEAN_MOTION":15.02537356,"ECCENTRICITY":0.00011969,"INCLINATION":43.0045,"RA_OF_ASC_NODE":77.4434,"ARG_OF_PERICENTER":272.2798,"MEAN_ANOMALY":87.7907,"EPHEMERIS_TYPE":0,"CLASSIFICATION_TYPE":"U","NORAD_CAT_ID":57344,"ELEMENT_SET_NO":999,"REV_AT_EPOCH":12096,"BSTAR":5.7424256e-5,"MEAN_MOTION_DOT":5.72e-6,"MEAN_MOTION_DDOT":0},{"OBJECT_NAME":"STARLINK-6373","OBJECT_ID":"2023-099T","EPOCH":"2025-09-24T04:46:20.806752","MEAN_MOTION":15.0253548,"ECCENTRICITY":0.00011069,"INCLINATION":43.0065,"RA_OF_ASC_NODE":73.4974,"ARG_OF_PERICENTER":270.2683,"MEAN_ANOMALY":89.8033,"EPHEMERIS_TYPE":0,"CLASSIFICATION_TYPE":"U","NORAD_CAT_ID":57345,"ELEMENT_SET_NO":999,"REV_AT_EPOCH":12107,"BSTAR":-1.674469e-6,"MEAN_MOTION_DOT":-2.26e-6,"MEAN_MOTION_DDOT":0},{"OBJECT_NAME":"STARLINK-6359","OBJECT_ID":"2023-099U","EPOCH":"2025-09-24T04:17:34.436256","MEAN_MOTION":15.02537715,"ECCENTRICITY":0.00012352,"INCLINATION":43.0032,"RA_OF_ASC_NODE":73.3433,"ARG_OF_PERICENTER":269.7572,"MEAN_ANOMALY":90.3129,"EPHEMERIS_TYPE":0,"CLASSIFICATION_TYPE":"U","NORAD_CAT_ID":57346,"ELEMENT_SET_NO":999,"REV_AT_EPOCH":12107,"BSTAR":1.363822e-6,"MEAN_MOTION_DOT":-1.85e-6,"MEAN_MOTION_DDOT":0},{"OBJECT_NAME":"STARLINK-6378","OBJECT_ID":"2023-099V","EPOCH":"2025-09-24T04:35:09.403584","MEAN_MOTION":15.02536457,"ECCENTRICITY":0.00013342,"INCLINATION":43.003,"RA_OF_ASC_NODE":73.438,"ARG_OF_PERICENTER":268.0523,"MEAN_ANOMALY":92.0167,"EPHEMERIS_TYPE":0,"CLASSIFICATION_TYPE":"U","NORAD_CAT_ID":57347,"ELEMENT_SET_NO":999,"REV_AT_EPOCH":12107,"BSTAR":2.5209273e-5,"MEAN_MOTION_DOT":1.37e-6,"MEAN_MOTION_DDOT":0}]
